{
    "links": {
        "self": "http://www.neowsapp.com/rest/v1/neo/3604483?api_key=iIulBulltgU6a56xZRHN4H3l9WmuAYTsLGpBGhQ2"
    },
    "id": "3604483",
    "neo_reference_id": "3604483",
    "name": "(2012 KN11)",
    "designation": "2012 KN11",
    "nasa_jpl_url": "http://ssd.jpl.nasa.gov/sbdb.cgi?sstr=3604483",
    "absolute_magnitude_h": 21.9,
    "estimated_diameter": {
        "kilometers": {
            "estimated_diameter_min": 0.1108038821,
            "estimated_diameter_max": 0.2477650126
        },
        "meters": {
            "estimated_diameter_min": 110.8038821264,
            "estimated_diameter_max": 247.7650126055
        },
        "miles": {
            "estimated_diameter_min": 0.068850319,
            "estimated_diameter_max": 0.1539539936
        },
        "feet": {
            "estimated_diameter_min": 363.5298086356,
            "estimated_diameter_max": 812.8773639568
        }
    },
    "is_potentially_hazardous_asteroid": false,
    "close_approach_data": [
        {
            "close_approach_date": "2006-02-22",
            "close_approach_date_full": "2006-Feb-22 00:25",
            "epoch_date_close_approach": 1140567900000,
            "relative_velocity": {
                "kilometers_per_second": "15.2532455826",
                "kilometers_per_hour": "54911.6840974576",
                "miles_per_hour": "34119.9850437786"
            },
            "miss_distance": {
                "astronomical": "0.1498613008",
                "lunar": "58.2960460112",
                "kilometers": "22418931.395109296",
                "miles": "13930478.0040724448"
            },
            "orbiting_body": "Venus"
        },
        {
            "close_approach_date": "2009-02-01",
            "close_approach_date_full": "2009-Feb-01 18:45",
            "epoch_date_close_approach": 1233513900000,
            "relative_velocity": {
                "kilometers_per_second": "16.052530643",
                "kilometers_per_hour": "57789.1103149303",
                "miles_per_hour": "35907.9057954077"
            },
            "miss_distance": {
                "astronomical": "0.100596693",
                "lunar": "39.132113577",
                "kilometers": "15049051.00184391",
                "miles": "9351046.678749558"
            },
            "orbiting_body": "Venus"
        },
        {
            "close_approach_date": "2012-04-15",
            "close_approach_date_full": "2012-Apr-15 15:36",
            "epoch_date_close_approach": 1334504160000,
            "relative_velocity": {
                "kilometers_per_second": "14.5345243473",
                "kilometers_per_hour": "52324.2876501785",
                "miles_per_hour": "32512.2775124123"
            },
            "miss_distance": {
                "astronomical": "0.1094397878",
                "lunar": "42.5720774542",
                "kilometers": "16371959.148131986",
                "miles": "10173063.6834179668"
            },
            "orbiting_body": "Earth"
        },
        {
            "close_approach_date": "2015-05-03",
            "close_approach_date_full": "2015-May-03 03:27",
            "epoch_date_close_approach": 1430623620000,
            "relative_velocity": {
                "kilometers_per_second": "21.1769254615",
                "kilometers_per_hour": "76236.931661265",
                "miles_per_hour": "47370.6645647455"
            },
            "miss_distance": {
                "astronomical": "0.1575976817",
                "lunar": "61.3054981813",
                "kilometers": "23576277.499257979",
                "miles": "14649619.5261549502"
            },
            "orbiting_body": "Earth"
        },
        {
            "close_approach_date": "2018-05-15",
            "close_approach_date_full": "2018-May-15 07:47",
            "epoch_date_close_approach": 1526370420000,
            "relative_velocity": {
                "kilometers_per_second": "27.9945798069",
                "kilometers_per_hour": "100780.4873049422",
                "miles_per_hour": "62621.0755701181"
            },
            "miss_distance": {
                "astronomical": "0.380315021",
                "lunar": "147.942543169",
                "kilometers": "56894317.07060527",
                "miles": "35352489.310961926"
            },
            "orbiting_body": "Earth"
        }
    ],
    "orbital_data": {
        "orbit_id": "12",
        "orbit_determination_date": "2017-04-06 08:49:44",
        "first_observation_date": "2012-05-19",
        "last_observation_date": "2012-06-13",
        "data_arc_in_days": 25,
        "observations_used": 49,
        "orbit_uncertainty": "7",
        "minimum_orbit_intersection": ".0210071",
        "jupiter_tisserand_invariant": "3.436",
        "epoch_osculation": "2459000.5",
        "eccentricity": ".6562048449056106",
        "semi_major_axis": "2.096428923678128",
        "inclination": "5.435846550577392",
        "ascending_node_longitude": "261.1855855747889",
        "orbital_period": "1108.71172709904",
        "perihelion_distance": ".720742106960286",
        "perihelion_argument": "238.029367400787",
        "aphelion_distance": "3.47211574039597",
        "perihelion_time": "2459317.412056580773",
        "mean_anomaly": "257.0982830067181",
        "mean_motion": ".3247011745261731",
        "equinox": "J2000",
        "orbit_class": {
            "orbit_class_type": "APO",
            "orbit_class_description": "Near-Earth asteroid orbits which cross the Earth’s orbit similar to that of 1862 Apollo",
            "orbit_class_range": "a (semi-major axis) > 1.0 AU; q (perihelion) < 1.017 AU"
        }
    },
    "is_sentry_object": false
}